{
    "links": {
        "self": "http://www.neowsapp.com/rest/v1/neo/3765706?api_key=iIulBulltgU6a56xZRHN4H3l9WmuAYTsLGpBGhQ2"
    },
    "id": "3765706",
    "neo_reference_id": "3765706",
    "name": "(2016 XJ18)",
    "designation": "2016 XJ18",
    "nasa_jpl_url": "http://ssd.jpl.nasa.gov/sbdb.cgi?sstr=3765706",
    "absolute_magnitude_h": 22.1,
    "estimated_diameter": {
        "kilometers": {
            "estimated_diameter_min": 0.1010543415,
            "estimated_diameter_max": 0.2259643771
        },
        "meters": {
            "estimated_diameter_min": 101.054341542,
            "estimated_diameter_max": 225.9643771094
        },
        "miles": {
            "estimated_diameter_min": 0.0627922373,
            "estimated_diameter_max": 0.140407711
        },
        "feet": {
            "estimated_diameter_min": 331.5431259047,
            "estimated_diameter_max": 741.3529669956
        }
    },
    "is_potentially_hazardous_asteroid": false,
    "close_approach_data": [
        {
            "close_approach_date": "2016-12-25",
            "close_approach_date_full": "2016-Dec-25 13:58",
            "epoch_date_close_approach": 1482674280000,
            "relative_velocity": {
                "kilometers_per_second": "19.5884945563",
                "kilometers_per_hour": "70518.58040286",
                "miles_per_hour": "43817.5034730993"
            },
            "miss_distance": {
                "astronomical": "0.1085687616",
                "lunar": "42.2332482624",
                "kilometers": "16241655.483897792",
                "miles": "10092096.7409498496"
            },
            "orbiting_body": "Earth"
        }
    ],
    "orbital_data": {
        "orbit_id": "7",
        "orbit_determination_date": "2017-04-06 08:21:33",
        "first_observation_date": "2016-12-06",
        "last_observation_date": "2016-12-18",
        "data_arc_in_days": 12,
        "observations_used": 31,
        "orbit_uncertainty": "9",
        "minimum_orbit_intersection": ".0444684",
        "jupiter_tisserand_invariant": "3.461",
        "epoch_osculation": "2457731.5",
        "eccentricity": ".6515568371845923",
        "semi_major_axis": "2.07794713697471",
        "inclination": "3.99615773532809",
        "ascending_node_longitude": "25.03441035752871",
        "orbital_period": "1094.082746203817",
        "perihelion_distance": ".724046472570689",
        "perihelion_argument": "145.5747184509488",
        "aphelion_distance": "3.43184780137873",
        "perihelion_time": "2457791.767685014101",
        "mean_anomaly": "340.1693549410617",
        "mean_motion": ".3290427540778854",
        "equinox": "J2000",
        "orbit_class": {
            "orbit_class_type": "APO",
            "orbit_class_description": "Near-Earth asteroid orbits which cross the Earth’s orbit similar to that of 1862 Apollo",
            "orbit_class_range": "a (semi-major axis) > 1.0 AU; q (perihelion) < 1.017 AU"
        }
    },
    "is_sentry_object": false
}